NORAD_CAT_ID,OBJECT_NAME,OBJECT_TYPE,EPOCH,MEAN_MOTION,ECCENTRICITY,INCLINATION,RA_OF_ASC_NODE,ARG_OF_PERICENTER,MEAN_ANOMALY,BSTAR,MEAN_MOTION_DOT,MEAN_MOTION_DDOT,TLE_LINE0,TLE_LINE1,TLE_LINE2,SEMIMAJOR_AXIS,PERIOD,APOGEE,PERIGEE,DECAYED
56490.0,STARLINK-5873,PAYLOAD,2024-07-12 22:38:49,14.98331937,0.0003384,69.9995,189.382,269.7414,90.3358,3.9636e-05,3.8e-06,0.0,0 STARLINK-5873,1 56490U 23064AU  24194.94362758  .00000380  00000-0  39636-4 0  9995,2 56490  69.9995 189.3820 0003384 269.7414  90.3358 14.98331937 65642,6950.187,96.107,574.404,569.7,0.0
56490.0,STARLINK-5873,PAYLOAD,2024-07-13 05:03:21,14.98331392,0.0003387,69.9995,188.7088,269.6884,90.3886,3.122e-05,2.79e-06,0.0,0 STARLINK-5873,1 56490U 23064AU  24195.21066792  .00000279  00000-0  31220-4 0  9993,2 56490  69.9995 188.7088 0003387 269.6884  90.3886 14.98331392 66040,6950.189,96.107,574.408,569.7,0.0
56490.0,STARLINK-5873,PAYLOAD,2024-07-13 09:51:45,14.98331526,0.0003394,69.9995,188.2039,269.7643,90.3127,2.9792e-05,2.62e-06,0.0,0 STARLINK-5873,1 56490U 23064AU  24195.41094767  .00000262  00000-0  29792-4 0  9991,2 56490  69.9995 188.2039 0003394 269.7643  90.3127 14.98331526 65713,6950.188,96.107,574.412,569.694,0.0
56490.0,STARLINK-5873,PAYLOAD,2024-07-13 16:16:18,14.98332424,0.0003374,69.9996,187.5306,270.0184,90.0588,1.564e-05,9.4e-07,0.0,0 STARLINK-5873,1 56490U 23064AU  24195.67798727  .00000094  00000-0  15640-4 0  9996,2 56490  69.9996 187.5306 0003374 270.0184  90.0588 14.98332424 65756,6950.185,96.107,574.395,569.705,0.0
56490.0,STARLINK-5873,PAYLOAD,2024-07-14 09:53:46,14.98334068,0.0003308,69.9998,185.6794,269.2522,90.8258,1.5998e-05,9.8e-07,0.0,0 STARLINK-5873,1 56490U 23064AU  24196.41234516  .00000098  00000-0  15998-4 0  9990,2 56490  69.9998 185.6794 0003308 269.2522  90.8258 14.98334068 66222,6950.18,96.107,574.344,569.746,0.0
56490.0,STARLINK-5873,PAYLOAD,2024-07-14 16:18:18,14.98333587,0.0003305,69.9999,185.0061,269.3206,90.7574,7.4983e-06,-4e-08,0.0,0 STARLINK-5873,1 56490U 23064AU  24196.67938503 -.00000004  00000-0  74983-5 0  9993,2 56490  69.9999 185.0061 0003305 269.3206  90.7574 14.98333587 65900,6950.182,96.107,574.344,569.75,0.0
56490.0,STARLINK-5873,PAYLOAD,2024-07-15 09:55:47,14.98334378,0.0003303,69.9999,183.1548,268.5089,91.5692,6.9413e-05,7.35e-06,0.0,0 STARLINK-5873,1 56490U 23064AU  24197.41374185  .00000735  00000-0  69413-4 0  9997,2 56490  69.9999 183.1548 0003303 268.5089  91.5692 14.98334378 66378,6950.179,96.107,574.34,569.749,0.0
56490.0,STARLINK-5873,PAYLOAD,2024-07-15 22:44:52,14.98327342,0.0003249,70.0001,181.8084,268.7764,91.3023,-2.199e-05,-3.55e-06,0.0,0 STARLINK-5873,1 56490U 23064AU  24197.94782826 -.00000355  00000-0 -21990-4 0  9998,2 56490  70.0001 181.8084 0003249 268.7764  91.3023 14.98327342 66094,6950.201,96.107,574.324,569.808,0.0
56490.0,STARLINK-5873,PAYLOAD,2024-07-16 05:09:24,14.98328769,0.0003231,70.0001,181.1351,268.0267,92.0522,-1.0024e-06,-1.05e-06,0.0,0 STARLINK-5873,1 56490U 23064AU  24198.21486704 -.00000105  00000-0 -10024-5 0  9995,2 56490  70.0001 181.1351 0003231 268.0267  92.0522 14.98328769 66496,6950.197,96.107,574.307,569.816,0.0
56490.0,STARLINK-5873,PAYLOAD,2024-07-16 08:21:40,14.98330294,0.0003214,70.0001,180.7984,268.2139,91.8652,1.694e-05,1.09e-06,0.0,0 STARLINK-5873,1 56490U 23064AU  24198.34838565  .00000109  00000-0  16940-4 0  9999,2 56490  70.0001 180.7984 0003214 268.2139  91.8652 14.98330294 66154,6950.192,96.107,574.291,569.823,0.0
56490.0,STARLINK-5873,PAYLOAD,2024-07-16 22:46:52,14.98332606,0.0003221,70.0001,179.2839,268.692,91.387,2.1203e-05,1.6e-06,0.0,0 STARLINK-5873,1 56490U 23064AU  24198.94922364  .00000160  00000-0  21203-4 0  9991,2 56490  70.0001 179.2839 0003221 268.6920  91.3870 14.98332606 66242,6950.185,96.107,574.288,569.811,0.0
56490.0,STARLINK-5873,PAYLOAD,2024-07-17 05:11:24,14.98335799,0.0003209,70.0002,178.6107,268.6263,91.4528,6.0979e-05,6.35e-06,0.0,0 STARLINK-5873,1 56490U 23064AU  24199.21626006  .00000635  00000-0  60979-4 0  9996,2 56490  70.0002 178.6107 0003209 268.6263  91.4528 14.98335799 66641,6950.175,96.107,574.27,569.81,0.0
56490.0,STARLINK-5873,PAYLOAD,2024-07-17 08:23:40,14.98336693,0.0003196,70.0003,178.2742,268.6704,91.4089,7.0361e-05,7.47e-06,0.0,0 STARLINK-5873,1 56490U 23064AU  24199.34977883  .00000747  00000-0  70361-4 0  9992,2 56490  70.0003 178.2742 0003196 268.6704  91.4089 14.98336693 66307,6950.172,96.107,574.258,569.816,0.0
56490.0,STARLINK-5873,PAYLOAD,2024-07-17 22:48:54,14.98327582,0.0003144,70.0004,176.7596,268.5834,91.4965,3.494e-05,3.24e-06,0.0,0 STARLINK-5873,1 56490U 23064AU  24199.95062556  .00000324  00000-0  34940-4 0  9995,2 56490  70.0004 176.7596 0003144 268.5834  91.4965 14.98327582 66393,6950.2,96.107,574.251,569.88,0.0
56490.0,STARLINK-5873,PAYLOAD,2024-07-18 05:13:26,14.98327904,0.0003112,70.0006,176.0867,268.3845,91.6958,3.9982e-05,3.84e-06,0.0,0 STARLINK-5873,1 56490U 23064AU  24200.21766571  .00000384  00000-0  39982-4 0  9992,2 56490  70.0006 176.0867 0003112 268.3845  91.6958 14.98327904 66790,6950.199,96.107,574.227,569.901,0.0
56490.0,STARLINK-5873,PAYLOAD,2024-07-18 08:25:42,14.9832884,0.0003098,70.0006,175.75,268.3268,91.7537,4.8385e-05,4.84e-06,0.0,0 STARLINK-5873,1 56490U 23064AU  24200.35118502  .00000484  00000-0  48385-4 0  9990,2 56490  70.0006 175.7500 0003098 268.3268  91.7537 14.98328840 66459,6950.196,96.107,574.215,569.908,0.0
56490.0,STARLINK-5873,PAYLOAD,2024-07-18 22:50:54,14.9833231,0.0003046,70.0008,174.2355,268.1671,91.9139,-2.1384e-05,-3.48e-06,0.0,0 STARLINK-5873,1 56490U 23064AU  24200.95202515 -.00000348  00000-0 -21384-4 0  9995,2 56490  70.0008 174.2355 0003046 268.1671  91.9139 14.98332310 66549,6950.186,96.107,574.168,569.934,0.0
56490.0,STARLINK-5873,PAYLOAD,2024-07-19 05:15:27,14.98333972,0.0003032,70.0009,173.5622,268.1541,91.9271,-4.1914e-08,-9.3e-07,0.0,0 STARLINK-5873,1 56490U 23064AU  24201.21906312 -.00000093  00000-0 -41914-7 0  9992,2 56490  70.0009 173.5622 0003032 268.1541  91.9271 14.98333972 66946,6950.181,96.107,574.153,569.938,0.0
56490.0,STARLINK-5873,PAYLOAD,2024-07-19 08:27:43,14.98334854,0.0003022,70.0009,173.2257,268.1649,91.9164,1.0524e-05,3.3e-07,0.0,0 STARLINK-5873,1 56490U 23064AU  24201.35258196  .00000033  00000-0  10524-4 0  9999,2 56490  70.0009 173.2257 0003022 268.1649  91.9164 14.98334854 66609,6950.178,96.107,574.143,569.943,0.0
56490.0,STARLINK-5873,PAYLOAD,2024-07-19 22:52:55,14.98328865,0.0003005,70.0008,171.7096,271.5666,88.5148,5.7443e-05,5.92e-06,0.0,0 STARLINK-5873,1 56490U 23064AU  24201.95342365  .00000592  00000-0  57443-4 0  9998,2 56490  70.0008 171.7096 0003005 271.5666  88.5148 14.98328865 66698,6950.196,96.107,574.15,569.973,0.0
56490.0,STARLINK-5873,PAYLOAD,2024-07-20 05:17:27,14.98332029,0.0002965,70.0008,171.0365,271.1857,88.8962,8.93e-05,9.73e-06,0.0,0 STARLINK-5873,1 56490U 23064AU  24202.22046098  .00000973  00000-0  89300-4 0  9993,2 56490  70.0008 171.0365 0002965 271.1857  88.8962 14.98332029 67091,6950.187,96.107,574.112,569.991,0.0
56490.0,STARLINK-5873,PAYLOAD,2024-07-20 08:29:43,14.98333984,0.0002959,70.0008,170.7,270.9563,89.1257,0.00010747,1.19e-05,0.0,0 STARLINK-5873,1 56490U 23064AU  24202.35397909  .00001190  00000-0  10747-3 0  9997,2 56490  70.0008 170.7000 0002959 270.9563  89.1257 14.98333984 66751,6950.181,96.107,574.102,569.989,0.0
56490.0,STARLINK-5873,PAYLOAD,2024-07-20 22:54:57,14.98326106,0.0002775,70.0012,169.1855,267.1254,92.9588,-9.9643e-06,-2.12e-06,0.0,0 STARLINK-5873,1 56490U 23064AU  24202.95482773 -.00000212  00000-0 -99643-5 0  9997,2 56490  70.0012 169.1855 0002775 267.1254  92.9588 14.98326106 66844,6950.205,96.107,573.999,570.141,0.0
56490.0,STARLINK-5873,PAYLOAD,2024-07-21 05:19:29,14.98327064,0.0002768,70.001,168.5121,266.9051,93.1791,7.2442e-07,-8.4e-07,0.0,0 STARLINK-5873,1 56490U 23064AU  24203.22186728 -.00000084  00000-0  72442-6 0  9994,2 56490  70.0010 168.5121 0002768 266.9051  93.1791 14.98327064 67243,6950.202,96.107,573.991,570.143,0.0
56490.0,STARLINK-5873,PAYLOAD,2024-07-21 06:55:37,14.98327224,0.0002768,70.001,168.3438,267.008,93.0762,2.029e-06,-6.9e-07,0.0,0 STARLINK-5873,1 56490U 23064AU  24203.28862725 -.00000069  00000-0  20290-5 0  9994,2 56490  70.0010 168.3438 0002768 267.0080  93.0762 14.98327224 66891,6950.201,96.107,573.99,570.143,0.0
56490.0,STARLINK-5873,PAYLOAD,2024-07-22 05:21:29,14.98332794,0.0002788,70.0008,165.9876,267.5727,92.5113,2.1192e-05,1.6e-06,0.0,0 STARLINK-5873,1 56490U 23064AU  24204.22326311  .00000160  00000-0  21192-4 0  9997,2 56490  70.0008 165.9876 0002788 267.5727  92.5113 14.98332794 67390,6950.184,96.107,573.987,570.112,0.0
56490.0,STARLINK-5873,PAYLOAD,2024-07-22 06:57:37,14.98333747,0.0002777,70.0008,165.8193,267.3602,92.7239,3.2535e-05,2.95e-06,0.0,0 STARLINK-5873,1 56490U 23064AU  24204.29002211  .00000295  00000-0  32535-4 0  9996,2 56490  70.0008 165.8193 0002777 267.3602  92.7239 14.98333747 67041,6950.181,96.107,573.976,570.116,0.0
56490.0,STARLINK-5873,PAYLOAD,2024-07-22 22:58:58,14.98329091,0.0002873,70.0004,164.1356,267.8408,92.2422,0.00010093,1.111e-05,0.0,0 STARLINK-5873,1 56490U 23064AU  24204.95762255  .00001111  00000-0  10093-3 0  9992,2 56490  70.0004 164.1356 0002873 267.8408  92.2422 14.98329091 67143,6950.196,96.107,574.057,570.064,0.0
56490.0,STARLINK-5873,PAYLOAD,2024-07-23 06:59:38,14.98334494,0.0002872,70.0004,163.2938,267.2047,92.8783,0.00012331,1.379e-05,0.0,0 STARLINK-5873,1 56490U 23064AU  24205.29141864  .00001379  00000-0  12331-3 0  9990,2 56490  70.0004 163.2938 0002872 267.2047  92.8783 14.98334494 67555,6950.179,96.107,574.04,570.048,0.0
56490.0,STARLINK-5873,PAYLOAD,2024-07-23 21:24:51,14.98325042,0.0002273,70.0014,161.7791,260.8539,99.2363,-1.6665e-06,-1.13e-06,0.0,0 STARLINK-5873,1 56490U 23064AU  24205.89226650 -.00000113  00000-0 -16665-5 0  9996,2 56490  70.0014 161.7791 0002273 260.8539  99.2363 14.98325042 67640,6950.208,96.107,573.653,570.493,0.0
